0 INTELSAT 11 (PAS 11)
1 32253U 07044B   13282.32855693 -.00000282  00000-0  10000-3 0  9613
2 32253 000.0047 216.8041 0003400 344.6865 251.9412 01.00270916 22063
0 INTELSAT 11 (PAS 11)
1 32253U 07044B   13284.09605955 -.00000288  00000-0  10000-3 0  9620
2 32253 000.0022 216.5738 0003375 345.1579 169.7335 01.00270260 22089
0 INTELSAT 11 (PAS 11)
1 32253U 07044B   13285.20802468 -.00000291  00000-0  10000-3 0  9637
2 32253 000.0007 202.6514 0003359 359.1896 211.0187 01.00269833 22090
0 INTELSAT 11 (PAS 11)
1 32253U 07044B   13286.08888237 -.00000293  00000-0  10000-3 0  9645
2 32253 000.0008 281.0861 0003399 280.4455 169.2992 01.00269542 22105
0 INTELSAT 11 (PAS 11)
1 32253U 07044B   13287.08399248 -.00000294  00000-0  10000-3 0  9657
2 32253 000.0008 107.4446 0003454 093.6533 168.9464 01.00269229 22111
0 INTELSAT 11 (PAS 11)
1 32253U 07044B   13289.07556928 -.00000293  00000-0  10000-3 0  9668
2 32253 000.0100 204.5204 0003454 356.6167 167.8460 01.00271024 22132
0 INTELSAT 11 (PAS 11)
1 32253U 07044B   13290.20880579 -.00000291  00000-0  10000-3 0  9676
2 32253 000.0021 249.7429 0004240 280.0540 248.2912 01.00270835 22149
0 INTELSAT 11 (PAS 11)
1 32253U 07044B   13290.20880579 -.00000291  00000-0  10000-3 0  9687
2 32253 000.0136 211.2564 0003085 340.7206 226.0925 01.00270882 22149
0 INTELSAT 11 (PAS 11)
1 32253U 07044B   13290.88680267 -.00000290  00000-0  10000-3 0  9693
2 32253 000.0141 211.1409 0003328 005.8687 085.7948 01.00270976 22143
0 INTELSAT 11 (PAS 11)
1 32253U 07044B   13292.06291852 -.00000287  00000-0  10000-3 0  9701
2 32253 000.0162 242.8943 0003511 334.5225 149.9495 01.00271445 22168
0 INTELSAT 11 (PAS 11)
1 32253U 07044B   13294.05447194 -.00000283  00000-0  10000-3 0  9711
2 32253 000.0123 242.8676 0003511 334.5863 148.8428 01.00271928 22188
0 INTELSAT 11 (PAS 11)
1 32253U 07044B   13295.21252558 -.00000282  00000-0  10000-3 0  9728
2 32253 000.0099 243.2965 0003495 334.0230 207.0206 01.00271730 22194
